STARLINK-2722
1 48472U 21040AW  26061.16668981 -.00015351  00000+0 -96920-3 0  9997
2 48472  53.0599 225.3557 0001343 109.0935 119.3242 15.08049600  5566
